0 SL-8 DEB
1 27746U 91009DB  13278.80832634  .00000286  00000-0  29802-2 0   248
2 27746 074.1040 052.2076 0174249 134.4060 019.5673 12.13952752   807
0 SL-8 DEB
1 27746U 91009DB  13285.69525511  .00000287  00000-0  29802-2 0   258
2 27746 074.1100 043.6918 0177094 125.7987 236.0276 12.13959075  1648
0 SL-8 DEB
1 27746U 91009DB  13285.71073098 -.00000274  00000-0 -25995-2 0   267
2 27746 074.1052 043.6731 0173821 124.6913 304.6745 12.13959273  1641
0 SL-8 DEB
1 27746U 91009DB  13288.02875182 -.00000290  00000-0 -27611-2 0   274
2 27746 074.1054 040.8077 0173662 121.4209 355.0020 12.13958477  1923
0 SL-8 DEB
1 27746U 91009DB  13291.64232501  .00000185  00000-0  19693-2 0   281
2 27746 074.1060 036.3442 0173466 116.2377 307.3127 12.13959497  2366
0 SL-8 DEB
1 27746U 91009DB  13292.29423112  .00000070  00000-0  82949-3 0   292
2 27746 074.1052 035.5356 0173291 115.3867 276.2131 12.13953826  2440
